*******************************************************************************
Ephemeris / WWW_USER Mon Mar 24 07:44:16 2025 Pasadena, USA      / Horizons    
*******************************************************************************
Target body name: (2018 TC)                       {source: JPL#10}
Center body name: Earth (399)                     {source: DE441}
Center-site name: Mauna Kea
*******************************************************************************
Start time      : A.D. 2018-Dec-06 03:52:00.0000 UT      
Stop  time      : A.D. 2018-Dec-06 16:33:00.0000 UT      
Step-size       : 1 minutes
*******************************************************************************
Target pole/equ : undefined
Target radii    : undefined                                                    
Center geodetic : 204.5278, 19.8260847, 4.21024   {E-lon(deg),Lat(deg),Alt(km)}
Center cylindric: 204.5278, 6006.35451, 2151.0229 {E-lon(deg),Dxy(km),Dz(km)}
Center pole/equ : ITRF93                          {East-longitude positive}
Center radii    : 6378.137, 6378.137, 6356.752 km {Equator_a, b, pole_c}       
Target primary  : Sun
Vis. interferer : MOON (R_eq= 1737.400) km        {source: DE441}
Rel. light bend : Sun                             {source: DE441}
Rel. lght bnd GM: 1.3271E+11 km^3/s^2                                          
Small-body perts: Yes                             {source: SB441-N16}
Atmos refraction: NO (AIRLESS)
RA format       : HMS
Time format     : CAL 
Calendar mode   : Mixed Julian/Gregorian
RTS-only print  : NO       
EOP file        : eop.250321.p250617                                           
EOP coverage    : DATA-BASED 1962-JAN-20 TO 2025-MAR-21. PREDICTS-> 2025-JUN-16
Units conversion: 1 au= 149597870.700 km, c= 299792.458 km/s, 1 day= 86400.0 s 
Table cut-offs 1: Elevation (-90.0deg=NO ),Airmass (>38.000=NO), Daylight (YES)
Table cut-offs 2: Solar elongation (  0.0,180.0=NO ),Local Hour Angle( 0.0=NO )
Table cut-offs 3: RA/DEC angular rate (     0.0=NO )                           
*******************************************************************************
Initial IAU76/J2000 heliocentric ecliptic osculating elements (au, days, deg.):
  EPOCH=  2458399.5 ! 2018-Oct-08.00 (TDB)         Residual RMS= .20211        
   EC= .2253304451868516   QR= .9525668516843322   TP= 2458354.2554697809      
   OM= 188.9146441926015   W=  135.2493409557404   IN= 3.631837316097226       
  Equivalent ICRF heliocentric cartesian coordinates (au, au/d):
   X= 9.874490534016482E-01  Y= 2.414303737329446E-01  Z= 9.746991415829437E-02
  VX=-1.955204385424240E-03 VY= 1.722364762632024E-02 VZ= 6.197883797821973E-03
Asteroid physical parameters (km, seconds, rotational period in hours):        
   GM= n.a.                RAD= n.a.               ROTPER= n.a.                
   H= 26.6                 G= .150                 B-V= n.a.                   
                           ALBEDO= n.a.            STYP= n.a.                  
*******************************************************************************
 Date__(UT)__HR:MN     R.A._________(ICRF)_________DEC
******************************************************
$$SOE
 2018-Dec-06 03:52 C   02 30 55.997479 +01 14 20.40703
 2018-Dec-06 03:53 C   02 30 56.024393 +01 14 20.94316
 2018-Dec-06 03:54 C   02 30 56.051276 +01 14 21.47928
 2018-Dec-06 03:55 C   02 30 56.078129 +01 14 22.01540
 2018-Dec-06 03:56 C   02 30 56.104951 +01 14 22.55151
 2018-Dec-06 03:57 C   02 30 56.131742 +01 14 23.08762
 2018-Dec-06 03:58 C   02 30 56.158503 +01 14 23.62372
 2018-Dec-06 03:59 C   02 30 56.185233 +01 14 24.15982
 2018-Dec-06 04:00 C   02 30 56.211933 +01 14 24.69592
 2018-Dec-06 04:01 C   02 30 56.238603 +01 14 25.23201
 2018-Dec-06 04:02 C   02 30 56.265242 +01 14 25.76810
 2018-Dec-06 04:03 C   02 30 56.291852 +01 14 26.30418
 2018-Dec-06 04:04 C   02 30 56.318431 +01 14 26.84026
 2018-Dec-06 04:05 C   02 30 56.344981 +01 14 27.37633
 2018-Dec-06 04:06 C   02 30 56.371500 +01 14 27.91240
 2018-Dec-06 04:07 N   02 30 56.397990 +01 14 28.44846
 2018-Dec-06 04:08 N   02 30 56.424450 +01 14 28.98452
 2018-Dec-06 04:09 N   02 30 56.450881 +01 14 29.52057
 2018-Dec-06 04:10 N   02 30 56.477282 +01 14 30.05662
 2018-Dec-06 04:11 N   02 30 56.503654 +01 14 30.59266
 2018-Dec-06 04:12 N   02 30 56.529996 +01 14 31.12870
 2018-Dec-06 04:13 N   02 30 56.556310 +01 14 31.66474
 2018-Dec-06 04:14 N   02 30 56.582594 +01 14 32.20077
 2018-Dec-06 04:15 N   02 30 56.608849 +01 14 32.73679
 2018-Dec-06 04:16 N   02 30 56.635075 +01 14 33.27281
 2018-Dec-06 04:17 N   02 30 56.661273 +01 14 33.80882
 2018-Dec-06 04:18 N   02 30 56.687441 +01 14 34.34483
 2018-Dec-06 04:19 N   02 30 56.713581 +01 14 34.88083
 2018-Dec-06 04:20 N   02 30 56.739693 +01 14 35.41682
 2018-Dec-06 04:21 N   02 30 56.765775 +01 14 35.95282
 2018-Dec-06 04:22 N   02 30 56.791830 +01 14 36.48880
 2018-Dec-06 04:23 N   02 30 56.817856 +01 14 37.02478
 2018-Dec-06 04:24 N   02 30 56.843855 +01 14 37.56076
 2018-Dec-06 04:25 N   02 30 56.869825 +01 14 38.09672
 2018-Dec-06 04:26 N   02 30 56.895767 +01 14 38.63269
 2018-Dec-06 04:27 N   02 30 56.921681 +01 14 39.16865
 2018-Dec-06 04:28 N   02 30 56.947568 +01 14 39.70460
 2018-Dec-06 04:29 N   02 30 56.973426 +01 14 40.24054
 2018-Dec-06 04:30 N   02 30 56.999258 +01 14 40.77648
 2018-Dec-06 04:31 N   02 30 57.025061 +01 14 41.31242
 2018-Dec-06 04:32 N   02 30 57.050838 +01 14 41.84834
 2018-Dec-06 04:33 N   02 30 57.076587 +01 14 42.38427
 2018-Dec-06 04:34 A   02 30 57.102309 +01 14 42.92018
 2018-Dec-06 04:35 A   02 30 57.128004 +01 14 43.45609
 2018-Dec-06 04:36 A   02 30 57.153672 +01 14 43.99200
 2018-Dec-06 04:37 A   02 30 57.179313 +01 14 44.52790
 2018-Dec-06 04:38 A   02 30 57.204927 +01 14 45.06379
 2018-Dec-06 04:39 A   02 30 57.230515 +01 14 45.59967
 2018-Dec-06 04:40 A   02 30 57.256076 +01 14 46.13555
 2018-Dec-06 04:41 A   02 30 57.281611 +01 14 46.67142
 2018-Dec-06 04:42 A   02 30 57.307120 +01 14 47.20729
 2018-Dec-06 04:43 A   02 30 57.332602 +01 14 47.74315
 2018-Dec-06 04:44 A   02 30 57.358058 +01 14 48.27900
 2018-Dec-06 04:45 A   02 30 57.383489 +01 14 48.81485
 2018-Dec-06 04:46 A   02 30 57.408893 +01 14 49.35069
 2018-Dec-06 04:47 A   02 30 57.434272 +01 14 49.88653
 2018-Dec-06 04:48 A   02 30 57.459624 +01 14 50.42235
 2018-Dec-06 04:49 A   02 30 57.484952 +01 14 50.95817
 2018-Dec-06 04:50 A   02 30 57.510254 +01 14 51.49399
 2018-Dec-06 04:51 A   02 30 57.535530 +01 14 52.02979
 2018-Dec-06 04:52 A   02 30 57.560782 +01 14 52.56559
 2018-Dec-06 04:53 A   02 30 57.586008 +01 14 53.10139
 2018-Dec-06 04:54 A   02 30 57.611209 +01 14 53.63717
 2018-Dec-06 04:55 A   02 30 57.636386 +01 14 54.17295
 2018-Dec-06 04:56 A   02 30 57.661538 +01 14 54.70873
 2018-Dec-06 04:57 A   02 30 57.686665 +01 14 55.24449
 2018-Dec-06 04:58 A   02 30 57.711767 +01 14 55.78025
 2018-Dec-06 04:59 A   02 30 57.736845 +01 14 56.31600
 2018-Dec-06 05:00 A   02 30 57.761899 +01 14 56.85175
 2018-Dec-06 05:01     02 30 57.786929 +01 14 57.38749
 2018-Dec-06 05:02     02 30 57.811934 +01 14 57.92322
 2018-Dec-06 05:03     02 30 57.836916 +01 14 58.45894
 2018-Dec-06 05:04     02 30 57.861874 +01 14 58.99466
 2018-Dec-06 05:05     02 30 57.886808 +01 14 59.53036
 2018-Dec-06 05:06     02 30 57.911718 +01 15 00.06606
 2018-Dec-06 05:07     02 30 57.936605 +01 15 00.60176
 2018-Dec-06 05:08     02 30 57.961469 +01 15 01.13745
 2018-Dec-06 05:09     02 30 57.986310 +01 15 01.67312
 2018-Dec-06 05:10     02 30 58.011127 +01 15 02.20880
 2018-Dec-06 05:11     02 30 58.035921 +01 15 02.74446
 2018-Dec-06 05:12     02 30 58.060693 +01 15 03.28012
 2018-Dec-06 05:13     02 30 58.085442 +01 15 03.81576
 2018-Dec-06 05:14     02 30 58.110168 +01 15 04.35141
 2018-Dec-06 05:15     02 30 58.134872 +01 15 04.88704
 2018-Dec-06 05:16     02 30 58.159553 +01 15 05.42266
 2018-Dec-06 05:17     02 30 58.184212 +01 15 05.95828
 2018-Dec-06 05:18     02 30 58.208849 +01 15 06.49389
 2018-Dec-06 05:19     02 30 58.233464 +01 15 07.02950
 2018-Dec-06 05:20     02 30 58.258057 +01 15 07.56509
 2018-Dec-06 05:21     02 30 58.282628 +01 15 08.10068
 2018-Dec-06 05:22     02 30 58.307178 +01 15 08.63626
 2018-Dec-06 05:23     02 30 58.331706 +01 15 09.17183
 2018-Dec-06 05:24     02 30 58.356213 +01 15 09.70739
 2018-Dec-06 05:25     02 30 58.380699 +01 15 10.24294
 2018-Dec-06 05:26     02 30 58.405163 +01 15 10.77849
 2018-Dec-06 05:27     02 30 58.429607 +01 15 11.31403
 2018-Dec-06 05:28     02 30 58.454030 +01 15 11.84956
 2018-Dec-06 05:29     02 30 58.478432 +01 15 12.38508
 2018-Dec-06 05:30     02 30 58.502813 +01 15 12.92059
 2018-Dec-06 05:31     02 30 58.527174 +01 15 13.45610
 2018-Dec-06 05:32     02 30 58.551514 +01 15 13.99160
 2018-Dec-06 05:33     02 30 58.575835 +01 15 14.52709
 2018-Dec-06 05:34     02 30 58.600135 +01 15 15.06257
 2018-Dec-06 05:35     02 30 58.624416 +01 15 15.59804
 2018-Dec-06 05:36     02 30 58.648676 +01 15 16.13350
 2018-Dec-06 05:37     02 30 58.672917 +01 15 16.66896
 2018-Dec-06 05:38     02 30 58.697138 +01 15 17.20441
 2018-Dec-06 05:39     02 30 58.721340 +01 15 17.73985
 2018-Dec-06 05:40     02 30 58.745523 +01 15 18.27528
 2018-Dec-06 05:41     02 30 58.769687 +01 15 18.81070
 2018-Dec-06 05:42     02 30 58.793831 +01 15 19.34611
 2018-Dec-06 05:43     02 30 58.817957 +01 15 19.88151
 2018-Dec-06 05:44     02 30 58.842064 +01 15 20.41691
 2018-Dec-06 05:45     02 30 58.866152 +01 15 20.95230
 2018-Dec-06 05:46     02 30 58.890222 +01 15 21.48768
 2018-Dec-06 05:47     02 30 58.914273 +01 15 22.02304
 2018-Dec-06 05:48     02 30 58.938307 +01 15 22.55841
 2018-Dec-06 05:49     02 30 58.962322 +01 15 23.09376
 2018-Dec-06 05:50     02 30 58.986319 +01 15 23.62910
 2018-Dec-06 05:51     02 30 59.010299 +01 15 24.16443
 2018-Dec-06 05:52     02 30 59.034261 +01 15 24.69976
 2018-Dec-06 05:53     02 30 59.058205 +01 15 25.23508
 2018-Dec-06 05:54     02 30 59.082132 +01 15 25.77038
